AMC-1 (GE-1)            
1 24315U 96054A   22358.41931549  .00000071  00000+0  00000+0 0  9991
2 24315   6.0687  71.5251 0003210 198.1890 203.2516  1.00269786 96280
AMC-3 (GE-3)            
1 24936U 97050A   22358.40144883 -.00000253  00000+0  00000+0 0  9996
2 24936   5.0091  77.6875 0002848 191.7195 256.0157  1.00270531 92709
ASTRA 1G                
1 25071U 97076A   22357.82618911  .00000123  00000+0  00000+0 0  9993
2 25071   6.6775  66.8195 0003268 205.1675 137.1647  1.00270614 91750
ASTRA 2A                
1 25462U 98050A   22357.91670860  .00000080  00000+0  00000+0 0  9993
2 25462   3.8774  83.5316 0002906 191.0651 205.0571  1.00273334 88993
AMC-4 (GE-4)            
1 25954U 99060A   22358.41685646  .00000098  00000+0  00000+0 0  9994
2 25954   1.9997  89.6683 0002860 195.7111 182.7047  1.00270530 84743
NSS-11 (AAP-1)          
1 26554U 00059A   22358.15590049  .00000038  00000+0  00000+0 0  9998
2 26554   0.0151 342.5451 0002437 270.1364  72.1077  1.00269982 81420
AMC-6 (GE-6)            
1 26580U 00067A   22357.73429019  .00000120  00000+0  00000+0 0  9999
2 26580   0.0176 329.5285 0001883 297.9091 310.1572  1.00272711 81153
ASTRA 2D                
1 26638U 00081A   22357.91034553  .00000137  00000+0  00000+0 0  9992
2 26638   7.6932  59.0031 0002252 200.5670 184.2876  1.00273806 80644
AMC-8 (GE-8)            
1 26639U 00081B   22358.35879279 -.00000185  00000+0  00000+0 0  9998
2 26639   2.8392  87.7828 0005109 208.9801  39.8708  0.99149961 80523
ASTRA 2C                
1 26853U 01025A   22358.38468816 -.00000251  00000+0  00000+0 0  9993
2 26853   5.0334  77.4963 0002787 196.4767 244.9229  1.00273343 78832
NSS-7                   
1 27414U 02019A   22358.06577323 -.00000150  00000+0  00000+0 0  9998
2 27414   6.3418  69.7369 0002615 208.4578 178.0462  1.00272007 75818
NSS-6                   
1 27603U 02057A   22358.15877694  .00000119  00000+0  00000+0 0  9998
2 27603   2.0902  89.4503 0003603 188.4158  62.4719  1.00272411 73297
AMC-11 (GE-11)          
1 28252U 04017A   22357.66588983  .00000004  00000+0  00000+0 0  9995
2 28252   0.0740 289.7843 0000990  93.8046 185.1278  1.00543219 68125
AMC-15                  
1 28446U 04041A   22357.66946359 -.00000072  00000+0  00000+0 0  9998
2 28446   0.0191 339.3716 0002038 300.1796 308.5786  1.00270657 66566
NSS-10 (AMC-12)         
1 28526U 05003A   22358.47202029 -.00000242  00000+0  00000+0 0  9994
2 28526   3.2558  85.3123 0002767 180.4980 319.6385  1.00270496 65579
ASTRA 1KR               
1 29055U 06012A   22358.48317743  .00000132  00000+0  00000+0 0  9991
2 29055   0.0292 291.0888 0004821 317.7417  37.2688  1.00270004 61002
AMC-18                  
1 29644U 06054B   22357.60217204 -.00000199  00000+0  00000+0 0  9999
2 29644   0.0111 351.9744 0002361 280.0253 313.9015  1.00271946 58785
ASTRA 1L                
1 31306U 07016A   22357.82618911  .00000135  00000+0  00000+0 0  9999
2 31306   0.0482 325.0432 0004982 316.5433 127.3647  1.00268856 32254
ASTRA 4A (SIRIUS 4)     
1 32299U 07057A   22357.91924378  .00000047  00000+0  00000+0 0  9995
2 32299   0.0123 357.2422 0002658 274.7671 156.1536  1.00270626 55217
AMC-21                  
1 33275U 08038B   22357.66554115  .00000052  00000+0  00000+0 0  9996
2 33275   0.0170 340.8729 0002214 284.3809 301.6238  1.00270610 52744
ASTRA 1M                
1 33436U 08057A   22358.09771382  .00000133  00000+0  00000+0 0  9991
2 33436   0.0178  65.2072 0002340 132.1712 309.5991  1.00268727 51730
CIEL-2                  
1 33453U 08063A   22358.04763983  .00000072  00000+0  00000+0 0  9992
2 33453   0.0180  74.9087 0002774 206.3344  59.6193  1.00270366 51381
NSS-9                   
1 33749U 09008A   22358.15729514  .00000085  00000+0  00000+0 0  9998
2 33749   0.0159 346.8308 0001966 282.8909  62.6404  1.00270663 50816
SES-7 (PROTOSTAR 2)     
1 34941U 09027A   22358.42930937 -.00000333  00000+0  00000+0 0  9994
2 34941   0.0472  78.5912 0001809 190.6875  86.4641  1.00270983 49879
NSS-12                  
1 36032U 09058A   22358.49084796  .00000084  00000+0  00000+0 0  9993
2 36032   0.0243 316.2038 0002586 318.3523  52.1462  1.00269619 48178
SES-1                   
1 36516U 10016A   22357.88550347 -.00000099  00000+0  00000+0 0  9995
2 36516   0.0113   0.1611 0002165 276.1755  33.8392  1.00270114 46390
ASTRA 3B                
1 36581U 10021A   22358.48404907  .00000149  00000+0  00000+0 0  9995
2 36581   0.0499 333.5526 0003439 290.0646  27.1097  1.00271429 45900
SES-3                   
1 37748U 11035A   22358.43814796 -.00000089  00000+0  00000+0 0  9997
2 37748   0.0187 348.1419 0002531 270.7351 248.8028  1.00270959 41957
ASTRA 1N                
1 37775U 11041A   22357.82618911  .00000135  00000+0  00000+0 0  9998
2 37775   0.0485  17.5632 0001927 329.3370  62.0700  1.00271144 31771
SES-2                   
1 37809U 11049A   22357.81655580 -.00000180  00000+0  00000+0 0  9997
2 37809   0.0148 335.3165 0002446 298.8810  25.0958  1.00271438 41202
QUETZSAT 1              
1 37826U 11054A   22358.39702552 -.00000229  00000+0  00000+0 0  9992
2 37826   0.0167 336.9303 0002406 290.2597 251.6283  1.00270110 41357
SES-4                   
1 38087U 12007A   22357.90128036 -.00000153  00000+0  00000+0 0  9992
2 38087   0.0173  79.6135 0002423 195.7324 119.5371  1.00271650 39744
SES-5                   
1 38652U 12036A   22358.40535514  .00000046  00000+0  00000+0 0  9991
2 38652   0.0541 298.7564 0001720 329.3142 335.7421  1.00270854 38329
ASTRA 2F                
1 38778U 12051A   22357.83948023  .00000165  00000+0  00000+0 0  9998
2 38778   0.0685 242.7113 0004032   2.6756 177.3747  1.00270406 28375
SES-6                   
1 39172U 13026A   22358.51346084 -.00000249  00000+0  00000+0 0  9999
2 39172   0.0172 349.0148 0001949 282.3092 326.0354  1.00270068 34983
O3B FM5                 
1 39188U 13031A   22357.77357753 -.00000012  00000+0  00000+0 0  9992
2 39188   0.0656   6.4776 0002867 271.1111  82.3800  5.00115328173529
O3B FM4                 
1 39189U 13031B   22357.82950529 -.00000012  00000+0  00000+0 0  9999
2 39189   0.0397 354.9510 0002801 282.4653  82.5531  5.00115829173443
O3B FM2                 
1 39190U 13031C   22358.12091835 -.00000012  00000+0  00000+0 0  9991
2 39190   0.0359 349.9093 0002787 286.0575  84.0024  5.00115077173516
O3B PFM                 
1 39191U 13031D   22357.74734660 -.00000011  00000+0  00000+0 0  9998
2 39191   0.0566   5.3285 0002757 266.7429  87.8984  5.00115754173050
ASTRA 2E                
1 39285U 13056A   22358.19632773  .00000164  00000+0  00000+0 0  9999
2 39285   0.0612 339.6650 0002493 286.8040 285.3914  1.00270891 33844
SES-8                   
1 39460U 13071A   22358.05535410 -.00000256  00000+0  00000+0 0  9999
2 39460   0.0315 268.0323 0000480 331.5577 327.8990  1.00273141 33126
ASTRA 5B                
1 39617U 14011B   22358.34424243  .00000167  00000+0  00000+0 0  9991
2 39617   0.0324   2.2291 0003197 261.8229 344.2291  1.00267826 32128
O3B FM3                 
1 40079U 14038A   22357.80213407 -.00000011  00000+0  00000+0 0  9991
2 40079   0.0469 358.8066 0004337 243.3376 117.8131  5.00116609149444
O3B FM7                 
1 40080U 14038B   22357.74824528 -.00000011  00000+0  00000+0 0  9998
2 40080   0.0458 353.4350 0002960 317.1782  49.3624  5.00115485154265
O3B FM6                 
1 40081U 14038C   22357.57475748 -.00000011  00000+0  00000+0 0  9996
2 40081   0.0459 359.2743 0002828 273.4009  87.2940  5.00115257154210
O3B FM8                 
1 40082U 14038D   22358.42817689 -.00000013  00000+0  00000+0 0  9998
2 40082   0.0427 358.9176 0002666 272.4217  88.6308  5.00115654154553
O3B FM10                
1 40348U 14083A   22357.65477459 -.00000011  00000+0  00000+0 0  9992
2 40348   0.0519   7.2306 0002731 265.3840  87.3556  5.00115111146285
O3B FM11                
1 40349U 14083B   22357.66818592 -.00000011  00000+0  00000+0 0  9991
2 40349   0.0544   2.9483 0003044 282.1661  74.8533  5.00115345146306
O3B FM12                
1 40350U 14083C   22357.69541681 -.00000011  00000+0  00000+0 0  9998
2 40350   0.0534   3.0302 0002938 271.0536  85.8840  5.00115218146300
O3B FM9                 
1 40351U 14083D   22357.92203230 -.00000012  00000+0  00000+0 0  9991
2 40351   0.0553   2.2236 0002749 272.0220  85.7242  5.00116053146471
ASTRA 2G                
1 40364U 14089A   22358.07202270  .00000164  00000+0  00000+0 0  9998
2 40364   0.0338 357.3284 0001458  28.1760 121.2220  1.00271525 29270
SES-9                   
1 41380U 16013A   22358.07064806 -.00000331  00000+0  00000+0 0  9994
2 41380   0.0201 311.4295 0000277 111.8855 162.9958  1.00271403 25006
SES-10                  
1 42432U 17017A   22358.39435616 -.00000260  00000+0  00000+0 0  9995
2 42432   0.0167  39.8842 0002572 237.0388 251.0542  1.00271963 20989
SES-15                  
1 42709U 17026A   22357.73646932  .00000076  00000+0  00000+0 0  9998
2 42709   0.0176 357.4384 0000030 199.9363  30.8623  1.00266394 21393
SES-11 (ECHOSTAR 105)   
1 42967U 17063A   22358.43734492 -.00000077  00000+0  00000+0 0  9994
2 42967   0.0132 344.9029 0002496 282.5789 237.9514  1.00271048 19069
SES-14                  
1 43175U 18012B   22357.82440065 -.00000263  00000+0  00000+0 0  9990
2 43175   0.0124 337.7072 0000772 293.7267  70.1820  1.00269265 18301
O3B FM15                
1 43231U 18024A   22358.38775308 -.00000013  00000+0  00000+0 0  9992
2 43231   0.0505  10.8327 0003085 262.5706  86.5621  5.00116146 87625
O3B FM16                
1 43232U 18024B   22357.64161557 -.00000011  00000+0  00000+0 0  9994
2 43232   0.0503  15.5787 0003083 258.0092  86.3782  5.00115935 87331
O3B FM14                
1 43233U 18024C   22358.28103696 -.00000013  00000+0  00000+0 0  9998
2 43233   0.0496  17.1292 0003021 260.2420  82.5953  5.00115361 87605
O3B FM13                
1 43234U 18024D   22357.53500884 -.00000011  00000+0  00000+0 0  9994
2 43234   0.0597   7.0348 0003912 265.1069  87.8151  5.00115328 87577
SES-12                  
1 43488U 18049A   22357.81577260 -.00000255  00000+0  00000+0 0  9995
2 43488   0.0214  43.6244 0002220 232.2506 205.1393  1.00270683 16675
O3B FM20                
1 44112U 19020A   22357.70805276 -.00000011  00000+0  00000+0 0  9999
2 44112   0.0511   7.1126 0003406 269.6727  83.1773  5.00115434 67960
O3B FM19                
1 44113U 19020B   22355.13632902 -.00000007  00000+0  00000+0 0  9994
2 44113   0.0695  17.1567 0002564 281.6097  61.2113  5.00115240 67704
O3B FM17                
1 44114U 19020C   22358.01522160 -.00000012  00000+0  00000+0 0  9995
2 44114   0.0330  17.6971 0003200 254.8721  87.3952  5.00115633 68054
O3B FM18                
1 44115U 19020D   22357.76181797 -.00000011  00000+0  00000+0 0  9993
2 44115   0.0516   6.9746 0002971 264.5284  88.4643  5.00115776 68033
SES-17                  
1 49332U 21095A   22357.32132748 -.00000254  00000+0  00000+0 0  9997
2 49332   0.0141  53.8924 0000807 215.3991 231.1271  1.00268521  5091
SES-22                  
1 52933U 22071A   22357.73524900  .00000104  00000+0  00000+0 0  9996
2 52933   0.0189 302.7629 0002334 331.9815 307.1928  1.00269435  1813
SES-20                  
1 53960U 22123A   22356.52271581 -.00000080  00000+0  00000+0 0  9999
2 53960   0.0778 118.8941 0000643 111.9809 305.2803  1.00273596   779
SES-21                  
1 53961U 22123B   22357.01877719  .00000089  00000+0  00000+0 0  9998
2 53961   0.0235  55.7990 0000205 230.2681  41.2240  1.00269211   803
